{"type": "FeatureCollection", "features": [ {"type": "Feature", "properties": {"norad_id": 36045, "name": "COSMOS 2251 DEB", "group": "cosmos-2251-debris", "lat": -66.78723870521783, "lon": 12.598346808874135, "alt_km": 694.8903613099874, "timestamp": "2025-12-14T14:39:29.766085+00:00", "meta": {"OBJECT_NAME": "COSMOS 2251 DEB", "OBJECT_ID": "1993-036AXG", "EPOCH": "2025-12-11T13:29:08.197152", "MEAN_MOTION": 14.69806465, "ECCENTRICITY": 0.00482484, "INCLINATION": 73.7636, "RA_OF_ASC_NODE": 61.4081, "ARG_OF_PERICENTER": 75.4727, "MEAN_ANOMALY": 285.1788, "EPHEMERIS_TYPE": 0, "CLASSIFICATION_TYPE": "U", "NORAD_CAT_ID": 36045, "ELEMENT_SET_NO": 999, "REV_AT_EPOCH": 8371, "BSTAR": 0.0031629771, "MEAN_MOTION_DOT": 0.00019249, "MEAN_MOTION_DDOT": 0}, "tle": {"line1": "1 36045U 93036AXG 25345.56190043  .00019249  00000+0  31630-2 0  9995", "line2": "2 36045  73.7636  61.4081 0048248  75.4727 285.1788 14.69806465 83717"}}, "geometry": {"type": "Point", "coordinates": [12.598346808874135, -66.78723870521783]}}, {"type": "Feature", "properties": {"norad_id": 36046, "name": "COSMOS 2251 DEB", "group": "cosmos-2251-debris", "lat": -41.693211373906415, "lon": -101.89832260412089, "alt_km": 690.3848338648668, "timestamp": "2025-12-14T14:39:29.766095+00:00", "meta": {"OBJECT_NAME": "COSMOS 2251 DEB", "OBJECT_ID": "1993-036AXH", "EPOCH": "2025-12-13T13:27:02.887776", "MEAN_MOTION": 14.65277312, "ECCENTRICITY": 0.00555987, "INCLINATION": 74.0166, "RA_OF_ASC_NODE": 274.9164, "ARG_OF_PERICENTER": 60.6505, "MEAN_ANOMALY": 118.1595, "EPHEMERIS_TYPE": 0, "CLASSIFICATION_TYPE": "U", "NORAD_CAT_ID": 36046, "ELEMENT_SET_NO": 999, "REV_AT_EPOCH": 64015, "BSTAR": 0.000804374, "MEAN_MOTION_DOT": 4.408e-05, "MEAN_MOTION_DDOT": 0}, "tle": {"line1": "1 36046U 93036AXH 25347.56045009  .00004408  00000+0  80437-3 0  9990", "line2": "2 36046  74.0166 274.9164 0055598  60.6505 118.1595 14.65277312640156"}}, "geometry": {"type": "Point", "coordinates": [-101.89832260412089, -41.693211373906415]}}, {"type": "Feature", "properties": {"norad_id": 36047, "name": "COSMOS 2251 DEB", "group": "cosmos-2251-debris", "lat": 73.07721881090667, "lon": 80.18635821064115, "alt_km": 572.5027008294601, "timestamp": "2025-12-14T14:39:29.766105+00:00", "meta": {"OBJECT_NAME": "COSMOS 2251 DEB", "OBJECT_ID": "1993-036AXJ", "EPOCH": "2025-12-13T09:20:40.596000", "MEAN_MOTION": 14.96004971, "ECCENTRICITY": 0.00082365, "INCLINATION": 74.0362, "RA_OF_ASC_NODE": 332.8451, "ARG_OF_PERICENTER": 359.1312, "MEAN_ANOMALY": 0.9857, "EPHEMERIS_TYPE": 0, "CLASSIFICATION_TYPE": "U", "NORAD_CAT_ID": 36047, "ELEMENT_SET_NO": 999, "REV_AT_EPOCH": 65949, "BSTAR": 0.0037615034, "MEAN_MOTION_DOT": 0.00042457, "MEAN_MOTION_DDOT": 0}, "tle": {"line1": "1 36047U 93036AXJ 25347.38935875  .00042457  00000+0  37615-2 0  9995", "line2": "2 36047  74.0362 332.8451 0008236 359.1312   0.9857 14.96004971659496"}}, "geometry": {"type": "Point", "coordinates": [80.18635821064115, 73.07721881090667]}}, {"type": "Feature", "properties": {"norad_id": 36048, "name": "COSMOS 2251 DEB", "group": "cosmos-2251-debris", "lat": -6.425445301736468, "lon": -66.00064725636534, "alt_km": 750.1046867480582, "timestamp": "2025-12-14T14:39:29.766115+00:00", "meta": {"OBJECT_NAME": "COSMOS 2251 DEB", "OBJECT_ID": "1993-036AXK", "EPOCH": "2025-12-13T22:15:29.761056", "MEAN_MOTION": 14.37854636, "ECCENTRICITY": 0.00267032, "INCLINATION": 74.0569, "RA_OF_ASC_NODE": 297.1003, "ARG_OF_PERICENTER": 346.9545, "MEAN_ANOMALY": 70.738, "EPHEMERIS_TYPE": 0, "CLASSIFICATION_TYPE": "U", "NORAD_CAT_ID": 36048, "ELEMENT_SET_NO": 999, "REV_AT_EPOCH": 85519, "BSTAR": 0.00039822599, "MEAN_MOTION_DOT": 1.18e-05, "MEAN_MOTION_DDOT": 0}, "tle": {"line1": "1 36048U 93036AXK 25347.92742779  .00001180  00000+0  39823-3 0  9997", "line2": "2 36048  74.0569 297.1003 0026703 346.9545  70.7380 14.37854636855190"}}, "geometry": {"type": "Point", "coordinates": [-66.00064725636534, -6.425445301736468]}}, {"type": "Feature", "properties": {"norad_id": 36049, "name": "COSMOS 2251 DEB", "group": "cosmos-2251-debris", "lat": -72.63689066843435, "lon": 1.9289060297827378, "alt_km": 689.4123695606995, "timestamp": "2025-12-14T14:39:29.766125+00:00", "meta": {"OBJECT_NAME": "COSMOS 2251 DEB", "OBJECT_ID": "1993-036AXL", "EPOCH": "2025-12-12T15:28:50.877120", "MEAN_MOTION": 14.62144824, "ECCENTRICITY": 0.00107751, "INCLINATION": 74.03, "RA_OF_ASC_NODE": 119.3632, "ARG_OF_PERICENTER": 206.0125, "MEAN_ANOMALY": 154.0501, "EPHEMERIS_TYPE": 0, "CLASSIFICATION_TYPE": "U", "NORAD_CAT_ID": 36049, "ELEMENT_SET_NO": 999, "REV_AT_EPOCH": 85363, "BSTAR": 0.0021295048, "MEAN_MOTION_DOT": 0.00010708, "MEAN_MOTION_DDOT": 0}, "tle": {"line1": "1 36049U 93036AXL 25346.64503330  .00010708  00000+0  21295-2 0  9993", "line2": "2 36049  74.0300 119.3632 0010775 206.0125 154.0501 14.62144824853636"}}, "geometry": {"type": "Point", "coordinates": [1.9289060297827378, -72.63689066843435]}}, {"type": "Feature", "properties": {"norad_id": 36050, "name": "COSMOS 2251 DEB", "group": "cosmos-2251-debris", "lat": -52.36964213839631, "lon": 32.01923562688532, "alt_km": 518.9823253635068, "timestamp": "2025-12-14T14:39:29.766135+00:00", "meta": {"OBJECT_NAME": "COSMOS 2251 DEB", "OBJECT_ID": "1993-036AXM", "EPOCH": "2025-12-13T07:12:52.072416", "MEAN_MOTION": 15.0104813, "ECCENTRICITY": 0.00886789, "INCLINATION": 74.0308, "RA_OF_ASC_NODE": 192.882, "ARG_OF_PERICENTER": 272.3797, "MEAN_ANOMALY": 86.7239, "EPHEMERIS_TYPE": 0, "CLASSIFICATION_TYPE": "U", "NORAD_CAT_ID": 36050, "ELEMENT_SET_NO": 999, "REV_AT_EPOCH": 67043, "BSTAR": 0.00086975595, "MEAN_MOTION_DOT": 0.0001207, "MEAN_MOTION_DDOT": 0}, "tle": {"line1": "1 36050U 93036AXM 25347.30060269  .00012070  00000+0  86976-3 0  9990", "line2": "2 36050  74.0308 192.8820 0088678 272.3797  86.7239 15.01048130670430"}}, "geometry": {"type": "Point", "coordinates": [32.01923562688532, -52.36964213839631]}}, {"type": "Feature", "properties": {"norad_id": 36053, "name": "COSMOS 2251 DEB", "group": "cosmos-2251-debris", "lat": -27.011452067898663, "lon": -22.420773533171158, "alt_km": 715.507301461027, "timestamp": "2025-12-14T14:39:29.766259+00:00", "meta": {"OBJECT_NAME": "COSMOS 2251 DEB", "OBJECT_ID": "1993-036AXQ", "EPOCH": "2025-12-13T04:45:23.710176", "MEAN_MOTION": 14.57191678, "ECCENTRICITY": 0.0032546, "INCLINATION": 73.8709, "RA_OF_ASC_NODE": 151.8055, "ARG_OF_PERICENTER": 100.6659, "MEAN_ANOMALY": 259.8172, "EPHEMERIS_TYPE": 0, "CLASSIFICATION_TYPE": "U", "NORAD_CAT_ID": 36053, "ELEMENT_SET_NO": 999, "REV_AT_EPOCH": 87451, "BSTAR": 0.0027691156, "MEAN_MOTION_DOT": 0.00012586, "MEAN_MOTION_DDOT": 0}, "tle": {"line1": "1 36053U 93036AXQ 25347.19819109  .00012586  00000+0  27691-2 0  9995", "line2": "2 36053  73.8709 151.8055 0032546 100.6659 259.8172 14.57191678874513"}}, "geometry": {"type": "Point", "coordinates": [-22.420773533171158, -27.011452067898663]}}, {"type": "Feature", "properties": {"norad_id": 36058, "name": "COSMOS 2251 DEB", "group": "cosmos-2251-debris", "lat": -15.215113656769619, "lon": 25.424709213463515, "alt_km": 733.225307940138, "timestamp": "2025-12-14T14:39:29.766272+00:00", "meta": {"OBJECT_NAME": "COSMOS 2251 DEB", "OBJECT_ID": "1993-036AXV", "EPOCH": "2025-12-13T20:37:32.134944", "MEAN_MOTION": 14.58701231, "ECCENTRICITY": 0.00444905, "INCLINATION": 74.0239, "RA_OF_ASC_NODE": 31.3248, "ARG_OF_PERICENTER": 165.3965, "MEAN_ANOMALY": 194.8498, "EPHEMERIS_TYPE": 0, "CLASSIFICATION_TYPE": "U", "NORAD_CAT_ID": 36058, "ELEMENT_SET_NO": 999, "REV_AT_EPOCH": 66127, "BSTAR": 0.00064390107, "MEAN_MOTION_DOT": 3.016e-05, "MEAN_MOTION_DDOT": 0}, "tle": {"line1": "1 36058U 93036AXV 25347.85939971  .00003016  00000+0  64390-3 0  9999", "line2": "2 36058  74.0239  31.3248 0044490 165.3965 194.8498 14.58701231661273"}}, "geometry": {"type": "Point", "coordinates": [25.424709213463515, -15.215113656769619]}}, {"type": "Feature", "properties": {"norad_id": 36060, "name": "COSMOS 2251 DEB", "group": "cosmos-2251-debris", "lat": 43.0866439556387, "lon": 35.559638117048, "alt_km": 758.5738439577844, "timestamp": "2025-12-14T14:39:29.766282+00:00", "meta": {"OBJECT_NAME": "COSMOS 2251 DEB", "OBJECT_ID": "1993-036AXX", "EPOCH": "2025-12-12T23:44:25.062144", "MEAN_MOTION": 14.42000577, "ECCENTRICITY": 0.00152909, "INCLINATION": 74.0287, "RA_OF_ASC_NODE": 234.1035, "ARG_OF_PERICENTER": 330.9868, "MEAN_ANOMALY": 29.0436, "EPHEMERIS_TYPE": 0, "CLASSIFICATION_TYPE": "U", "NORAD_CAT_ID": 36060, "ELEMENT_SET_NO": 999, "REV_AT_EPOCH": 85013, "BSTAR": 0.00049024599, "MEAN_MOTION_DOT": 1.584e-05, "MEAN_MOTION_DDOT": 0}, "tle": {"line1": "1 36060U 93036AXX 25346.98917896  .00001584  00000+0  49025-3 0  9993", "line2": "2 36060  74.0287 234.1035 0015290 330.9868  29.0436 14.42000577850138"}}, "geometry": {"type": "Point", "coordinates": [35.559638117048, 43.0866439556387]}}, {"type": "Feature", "properties": {"norad_id": 36061, "name": "COSMOS 2251 DEB", "group": "cosmos-2251-debris", "lat": -71.38910731777716, "lon": -125.3755070954923, "alt_km": 812.5802156854106, "timestamp": "2025-12-14T14:39:29.766292+00:00", "meta": {"OBJECT_NAME": "COSMOS 2251 DEB", "OBJECT_ID": "1993-036AXY", "EPOCH": "2025-12-13T07:18:22.504032", "MEAN_MOTION": 14.33710142, "ECCENTRICITY": 0.00367997, "INCLINATION": 74.0242, "RA_OF_ASC_NODE": 358.7264, "ARG_OF_PERICENTER": 86.5277, "MEAN_ANOMALY": 274.0082, "EPHEMERIS_TYPE": 0, "CLASSIFICATION_TYPE": "U", "NORAD_CAT_ID": 36061, "ELEMENT_SET_NO": 999, "REV_AT_EPOCH": 65112, "BSTAR": 0.00043212222, "MEAN_MOTION_DOT": 1.183e-05, "MEAN_MOTION_DDOT": 0}, "tle": {"line1": "1 36061U 93036AXY 25347.30442713  .00001183  00000+0  43212-3 0  9999", "line2": "2 36061  74.0242 358.7264 0036799  86.5277 274.0082 14.33710142651125"}}, "geometry": {"type": "Point", "coordinates": [-125.3755070954923, -71.38910731777716]}}]}